NORAD_CAT_ID,OBJECT_NAME,OBJECT_TYPE,EPOCH,MEAN_MOTION,ECCENTRICITY,INCLINATION,RA_OF_ASC_NODE,ARG_OF_PERICENTER,MEAN_ANOMALY,BSTAR,MEAN_MOTION_DOT,MEAN_MOTION_DDOT,TLE_LINE0,TLE_LINE1,TLE_LINE2,SEMIMAJOR_AXIS,PERIOD,APOGEE,PERIGEE,DECAYED
49751.0,STARLINK-3229,PAYLOAD,2023-10-01 04:14:28,15.08846952,0.000132,53.2174,186.7106,84.2739,275.8404,9.4898e-06,-1.37e-06,0.0,0 STARLINK-3229,1 49751U 21115AD  23274.17671626 -.00000137  00000-0  94898-5 0  9995,2 49751  53.2174 186.7106 0001320  84.2739 275.8404 15.08846952102212,6917.859,95.437,540.637,538.811,0.0
49751.0,STARLINK-3229,PAYLOAD,2023-10-01 21:43:42,15.0884718,0.0001405,53.2164,183.4393,85.6187,274.4966,1.1023e-05,-1.12e-06,0.0,0 STARLINK-3229,1 49751U 21115AD  23274.90535432 -.00000112  00000-0  11023-4 0  9991,2 49751  53.2164 183.4393 0001405  85.6187 274.4966 15.08847180101210,6917.858,95.437,540.695,538.751,0.0
49751.0,STARLINK-3229,PAYLOAD,2023-10-02 10:26:47,15.08844213,0.000151,53.2169,181.0601,89.5244,270.5922,2.0788e-05,4.3e-07,0.0,0 STARLINK-3229,1 49751U 21115AD  23275.43527182  .00000043  00000-0  20788-4 0  9993,2 49751  53.2169 181.0601 0001510  89.5244 270.5922 15.08844213102400,6917.868,95.437,540.777,538.688,0.0
49751.0,STARLINK-3229,PAYLOAD,2023-10-02 18:23:43,15.08838695,0.0001804,53.2171,179.5747,79.6059,280.5136,4.7362e-05,4.66e-06,0.0,0 STARLINK-3229,1 49751U 21115AD  23275.76647935  .00000466  00000-0  47362-4 0  9994,2 49751  53.2171 179.5747 0001804  79.6059 280.5136 15.08838695102456,6917.884,95.438,540.997,538.501,0.0
49751.0,STARLINK-3229,PAYLOAD,2023-10-03 10:17:34,15.08841929,0.0001178,53.2158,176.6019,87.1644,272.9483,5.227e-05,5.44e-06,0.0,0 STARLINK-3229,1 49751U 21115AD  23276.42887545  .00000544  00000-0  52270-4 0  9992,2 49751  53.2158 176.6019 0001178  87.1644 272.9483 15.08841929101441,6917.874,95.437,540.554,538.925,0.0
49751.0,STARLINK-3229,PAYLOAD,2023-10-03 21:25:17,15.08836284,0.0001867,53.216,174.5205,87.4773,272.6433,-0.00013593,-2.451e-05,0.0,0 STARLINK-3229,1 49751U 21115AD  23276.89256290 -.00002451  00000-0 -13593-3 0  9995,2 49751  53.2160 174.5205 0001867  87.4773 272.6433 15.08836284101517,6917.892,95.438,541.048,538.465,0.0
49751.0,STARLINK-3229,PAYLOAD,2023-10-04 02:11:26,15.08845902,0.0001182,53.216,173.6275,98.5178,261.5948,2.8967e-05,1.73e-06,0.0,0 STARLINK-3229,1 49751U 21115AD  23277.09127656  .00000173  00000-0  28967-4 0  9990,2 49751  53.2160 173.6275 0001182  98.5178 261.5948 15.08845902102657,6917.862,95.437,540.545,538.91,0.0
49751.0,STARLINK-3229,PAYLOAD,2023-10-04 10:08:22,15.0884377,0.0001674,53.2178,172.1431,87.4378,272.6805,5.3265e-05,5.6e-06,0.0,0 STARLINK-3229,1 49751U 21115AD  23277.42248019  .00000560  00000-0  53265-4 0  9993,2 49751  53.2178 172.1431 0001674  87.4378 272.6805 15.08843770101597,6917.869,95.437,540.892,538.576,0.0
49751.0,STARLINK-3229,PAYLOAD,2023-10-04 22:51:27,15.08848255,0.0001188,53.2159,169.7641,95.8796,264.2331,0.00021216,3.091e-05,0.0,0 STARLINK-3229,1 49751U 21115AD  23277.95239744  .00003091  00000-0  21216-3 0  9998,2 49751  53.2159 169.7641 0001188  95.8796 264.2331 15.08848255101671,6917.855,95.437,540.542,538.898,0.0
49751.0,STARLINK-3229,PAYLOAD,2023-10-05 09:59:09,15.08844999,0.0001276,53.2159,167.6825,87.2655,272.8483,0.00018182,2.607e-05,0.0,0 STARLINK-3229,1 49751U 21115AD  23278.41607803  .00002607  00000-0  18182-3 0  9995,2 49751  53.2159 167.6825 0001276  87.2655 272.8483 15.08844999102854,6917.865,95.437,540.613,538.847,0.0
49751.0,STARLINK-3229,PAYLOAD,2023-10-05 21:06:51,15.08838188,0.0002136,53.2165,165.5993,82.6365,277.487,8.3844e-05,1.046e-05,0.0,0 STARLINK-3229,1 49751U 21115AD  23278.87976469  .00001046  00000-0  83844-4 0  9996,2 49751  53.2165 165.5993 0002136  82.6365 277.4870 15.08838188102929,6917.886,95.438,541.229,538.273,0.0
49751.0,STARLINK-3229,PAYLOAD,2023-10-05 22:42:14,15.08838501,0.0001643,53.2166,165.3008,84.4905,275.6274,-7.829e-06,-4.13e-06,0.0,0 STARLINK-3229,1 49751U 21115AD  23278.94600412 -.00000413  00000-0 -78290-5 0  9995,2 49751  53.2166 165.3008 0001643  84.4905 275.6274 15.08838501101822,6917.885,95.438,540.887,538.613,0.0
49751.0,STARLINK-3229,PAYLOAD,2023-10-06 09:49:56,15.08837533,0.0001622,53.2167,163.2204,80.3391,279.7784,6.4955e-07,-2.78e-06,0.0,0 STARLINK-3229,1 49751U 21115AD  23279.40968603 -.00000278  00000-0  64955-6 0  9998,2 49751  53.2167 163.2204 0001622  80.3391 279.7784 15.08837533101891,6917.888,95.438,540.875,538.631,0.0
49751.0,STARLINK-3229,PAYLOAD,2023-10-06 20:57:39,15.08834745,0.0001583,53.2166,161.1385,81.8167,278.3004,4.6247e-07,-2.81e-06,0.0,0 STARLINK-3229,1 49751U 21115AD  23279.87336939 -.00000281  00000-0  46247-6 0  9998,2 49751  53.2166 161.1385 0001583  81.8167 278.3004 15.08834745103074,6917.896,95.438,540.857,538.666,0.0
49751.0,STARLINK-3229,PAYLOAD,2023-10-06 22:33:02,15.08836762,0.0001588,53.2172,160.8397,84.4244,275.6929,1.8796e-05,1.1e-07,0.0,0 STARLINK-3229,1 49751U 21115AD  23279.93960952  .00000011  00000-0  18796-4 0  9999,2 49751  53.2172 160.8397 0001588  84.4244 275.6929 15.08836762101974,6917.89,95.438,540.854,538.657,0.0
49751.0,STARLINK-3229,PAYLOAD,2023-10-07 09:40:43,15.08845788,0.0001502,53.2165,158.76,85.2729,274.8435,9.2961e-05,1.192e-05,0.0,0 STARLINK-3229,1 49751U 21115AD  23280.40328485  .00001192  00000-0  92961-4 0  9999,2 49751  53.2165 158.7600 0001502  85.2729 274.8435 15.08845788103155,6917.863,95.437,540.767,538.689,0.0
49751.0,STARLINK-3229,PAYLOAD,2023-10-07 22:23:48,15.08853287,0.0001669,53.216,156.3818,82.9865,277.1317,0.00041128,6.266e-05,0.0,0 STARLINK-3229,1 49751U 21115AD  23280.93320544  .00006266  00000-0  41128-3 0  9990,2 49751  53.2160 156.3818 0001669  82.9865 277.1317 15.08853287102128,6917.84,95.437,540.859,538.55,0.0
49751.0,STARLINK-3229,PAYLOAD,2023-10-08 19:03:49,15.08849683,0.0001668,53.2162,152.5162,110.2091,249.908,0.00025496,3.773e-05,0.0,0 STARLINK-3229,1 49751U 21115AD  23281.79432277  .00003773  00000-0  25496-3 0  9992,2 49751  53.2162 152.5162 0001668 110.2091 249.9080 15.08849683103361,6917.851,95.437,540.87,538.562,0.0
49751.0,STARLINK-3229,PAYLOAD,2023-10-08 20:39:12,15.08851342,0.0001655,53.2164,152.2191,105.9991,254.1184,0.00027355,4.07e-05,0.0,0 STARLINK-3229,1 49751U 21115AD  23281.86056201  .00004070  00000-0  27355-3 0  9996,2 49751  53.2164 152.2191 0001655 105.9991 254.1184 15.08851342102264,6917.846,95.437,540.856,538.566,0.0
49751.0,STARLINK-3229,PAYLOAD,2023-10-08 22:14:35,15.08855873,0.0001377,53.2157,151.922,90.3218,269.7932,0.00031398,4.715e-05,0.0,0 STARLINK-3229,1 49751U 21115AD  23281.92680063  .00004715  00000-0  31398-3 0  9990,2 49751  53.2157 151.9220 0001377  90.3218 269.7932 15.08855873102272,6917.832,95.437,540.649,538.744,0.0
49751.0,STARLINK-3229,PAYLOAD,2023-10-09 20:30:00,15.08838879,0.0001443,53.2163,147.7596,88.5272,271.5885,-3.1369e-05,-7.87e-06,0.0,0 STARLINK-3229,1 49751U 21115AD  23282.85416790 -.00000787  00000-0 -31369-4 0  9993,2 49751  53.2163 147.7596 0001443  88.5272 271.5885 15.08838879103525,6917.884,95.438,540.747,538.751,0.0
49751.0,STARLINK-3229,PAYLOAD,2023-10-09 22:05:23,15.08838641,0.0001489,53.2169,147.463,95.7764,264.3398,-2.7732e-05,-7.29e-06,0.0,0 STARLINK-3229,1 49751U 21115AD  23282.92040773 -.00000729  00000-0 -27732-4 0  9990,2 49751  53.2169 147.4630 0001489  95.7764 264.3398 15.08838641102427,6917.885,95.438,540.78,538.719,0.0
49751.0,STARLINK-3229,PAYLOAD,2023-10-10 07:37:41,15.08841288,0.000128,53.2156,145.6763,86.5081,273.6058,-1.678e-05,-5.55e-06,0.0,0 STARLINK-3229,1 49751U 21115AD  23283.31784565 -.00000555  00000-0 -16780-4 0  9996,2 49751  53.2156 145.6763 0001280  86.5081 273.6058 15.08841288102482,6917.876,95.437,540.627,538.856,0.0
49751.0,STARLINK-3229,PAYLOAD,2023-10-10 21:56:09,15.08850605,0.0001164,53.2158,143.0003,89.363,270.7496,0.0002935,4.388e-05,0.0,0 STARLINK-3229,1 49751U 21115AD  23283.91400291  .00004388  00000-0  29350-3 0  9995,2 49751  53.2158 143.0003 0001164  89.3630 270.7496 15.08850605102572,6917.848,95.437,540.518,538.908,0.0
49751.0,STARLINK-3229,PAYLOAD,2023-10-11 01:06:55,15.08855028,0.0001173,53.2159,142.4044,91.1931,268.9195,0.00036942,5.599e-05,0.0,0 STARLINK-3229,1 49751U 21115AD  23284.04648071  .00005599  00000-0  36942-3 0  9990,2 49751  53.2159 142.4044 0001173  91.1931 268.9195 15.08855028103701,6917.834,95.437,540.511,538.888,0.0
49751.0,STARLINK-3229,PAYLOAD,2023-10-11 07:28:28,15.08840948,0.0001215,53.2157,141.2101,71.4452,288.6672,0.00023966,3.528e-05,0.0,0 STARLINK-3229,1 49751U 21115AD  23284.31144537  .00003528  00000-0  23966-3 0  9990,2 49751  53.2157 141.2101 0001215  71.4452 288.6672 15.08840948103744,6917.877,95.437,540.583,538.902,0.0
49751.0,STARLINK-3229,PAYLOAD,2023-10-11 20:11:34,15.08830643,0.000159,53.2168,138.8336,86.2578,273.8596,-1.9575e-05,-5.99e-06,0.0,0 STARLINK-3229,1 49751U 21115AD  23284.84137323 -.00000599  00000-0 -19575-4 0  9992,2 49751  53.2168 138.8336 0001590  86.2578 273.8596 15.08830643103828,6917.909,95.438,540.874,538.674,0.0
49751.0,STARLINK-3229,PAYLOAD,2023-10-12 07:19:16,15.08840876,0.0001472,53.2158,136.7552,79.0525,281.0632,0.0001219,1.653e-05,0.0,0 STARLINK-3229,1 49751U 21115AD  23285.30505059  .00001653  00000-0  12190-3 0  9994,2 49751  53.2158 136.7552 0001472  79.0525 281.0632 15.08840876102780,6917.878,95.437,540.761,538.724,0.0
49751.0,STARLINK-3229,PAYLOAD,2023-10-12 20:02:21,15.08845918,0.0001471,53.2162,134.3771,83.7847,276.3313,0.00019871,2.876e-05,0.0,0 STARLINK-3229,1 49751U 21115AD  23285.83496944  .00002876  00000-0  19871-3 0  9995,2 49751  53.2162 134.3771 0001471  83.7847 276.3313 15.08845918103977,6917.862,95.437,540.745,538.71,0.0
49751.0,STARLINK-3229,PAYLOAD,2023-10-12 21:37:44,15.08848058,0.0001443,53.2161,134.0801,82.7842,277.3314,0.00025772,3.817e-05,0.0,0 STARLINK-3229,1 49751U 21115AD  23285.90120892  .00003817  00000-0  25772-3 0  9992,2 49751  53.2161 134.0801 0001443  82.7842 277.3314 15.08848058102878,6917.856,95.437,540.719,538.723,0.0
